{
 "type": "FeatureCollection",
 "name": "fire_monitoring_aoi",
 "crs": {
  "type": "name",
  "properties": {
   "name": "urn:ogc:def:crs:OGC:1.3:CRS84"
  }
 },
 "features": [
  {
   "type": "Feature",
   "id": "aoi",
   "properties": {
    "name": "Нижнее Поволжье и Подонье",
    "role": "Граница территории мониторинга природных пожаров",
    "subjects": "Ростовская, Волгоградская, Астраханская обл., запад и центр Саратовской обл., Республика Калмыкия",
    "seasons": "2019–2025",
    "months": "04–10",
    "utm_zones": "EPSG:32637 (37N), EPSG:32638 (38N)",
    "area_km2": 435273,
    "crs": "EPSG:4326"
   },
   "geometry": {
    "type": "Polygon",
    "coordinates": [
     [
      [
       38.3,
       47.1
      ],
      [
       40.0,
       46.6
      ],
      [
       42.5,
       45.4
      ],
      [
       44.5,
       44.8
      ],
      [
       46.5,
       44.6
      ],
      [
       47.9,
       45.4
      ],
      [
       48.0,
       46.8
      ],
      [
       48.0,
       52.3
      ],
      [
       46.5,
       52.7
      ],
      [
       44.0,
       52.0
      ],
      [
       42.5,
       51.3
      ],
      [
       41.0,
       50.2
      ],
      [
       40.1,
       49.8
      ],
      [
       40.0,
       49.2
      ],
      [
       39.6,
       48.6
      ],
      [
       38.9,
       47.85
      ],
      [
       38.3,
       47.1
      ]
     ]
    ]
   }
  },
  {
   "type": "Feature",
   "id": "utm_32637",
   "properties": {
    "name": "Зона UTM 37N",
    "role": "Рекомендуемая проекция для этой долготной полосы",
    "subjects": "",
    "seasons": "2019–2025",
    "months": "04–10",
    "utm_zones": "EPSG:32637",
    "area_km2": 244609,
    "crs": "EPSG:4326"
   },
   "geometry": {
    "type": "Polygon",
    "coordinates": [
     [
      [
       38.3,
       44.6
      ],
      [
       42.0,
       44.6
      ],
      [
       42.0,
       52.7
      ],
      [
       38.3,
       52.7
      ],
      [
       38.3,
       44.6
      ]
     ]
    ]
   }
  },
  {
   "type": "Feature",
   "id": "utm_32638",
   "properties": {
    "name": "Зона UTM 38N",
    "role": "Рекомендуемая проекция для этой долготной полосы",
    "subjects": "",
    "seasons": "2019–2025",
    "months": "04–10",
    "utm_zones": "EPSG:32638",
    "area_km2": 396663,
    "crs": "EPSG:4326"
   },
   "geometry": {
    "type": "Polygon",
    "coordinates": [
     [
      [
       42.0,
       44.6
      ],
      [
       48.0,
       44.6
      ],
      [
       48.0,
       52.7
      ],
      [
       42.0,
       52.7
      ],
      [
       42.0,
       44.6
      ]
     ]
    ]
   }
  }
 ]
}